     3.04           N: GNSS NAV DATA    G: GPS              RINEX VERSION / TYPE
cnvtToRINEX 3.14.0  convertToRINEX OPR  20250615 162936 UTC PGM / RUN BY / DATE 
----------------------------------------------------------- COMMENT             
GPSA   0.1583D-07  0.2235D-07 -0.1192D-06 -0.1192D-06       IONOSPHERIC CORR    
GPSB   0.1167D+06  0.1638D+06 -0.1311D+06 -0.4588D+06       IONOSPHERIC CORR    
GPUT  0.9313225746D-09-0.177635684D-14 233472 2371          TIME SYSTEM CORR    
    18                                                      LEAP SECONDS        
                                                            END OF HEADER       
G18 2025 06 15 08 00 00-0.610562507063D-03 0.591171556152D-11 0.000000000000D+00
     0.121000000000D+03 0.101625000000D+03 0.406302638421D-08-0.161244400554D+01
     0.524148344994D-05 0.520297850017D-02 0.512972474098D-05 0.515368915939D+04
     0.288000000000D+05-0.838190317154D-07 0.143543910151D+01-0.856816768646D-07
     0.973346807939D+00 0.289593750000D+03-0.295768749853D+01-0.788389982464D-08
     0.112504686272D-09 0.100000000000D+01 0.237100000000D+04 0.000000000000D+00
     0.200000000000D+01 0.000000000000D+00-0.838190317154D-08 0.889000000000D+03
     0.253680000000D+05 0.400000000000D+01 0.000000000000D+00 0.000000000000D+00
G16 2025 06 15 07 59 44 0.386228784919D-04 0.841282599140D-11 0.000000000000D+00
     0.000000000000D+00-0.446875000000D+01 0.508592613495D-08 0.138156612652D+01
    -0.134110450745D-06 0.144486130448D-01 0.685825943947D-05 0.515374275017D+04
     0.287840000000D+05-0.290572643280D-06-0.591605648281D+00 0.134110450745D-06
     0.959467542360D+00 0.252437500000D+03 0.886326268532D+00-0.827855912093D-08
    -0.346085844436D-09 0.100000000000D+01 0.237100000000D+04 0.000000000000D+00
     0.200000000000D+01 0.000000000000D+00-0.102445483208D-07 0.000000000000D+00
     0.253680000000D+05 0.400000000000D+01 0.000000000000D+00 0.000000000000D+00
G27 2025 06 15 07 59 44-0.244160182774D-04 0.454747350886D-12 0.000000000000D+00
     0.420000000000D+02 0.450312500000D+02 0.461769234542D-08 0.459174232827D+00
     0.257976353168D-05 0.134536962723D-01 0.980496406555D-05 0.515369655991D+04
     0.287840000000D+05-0.521540641785D-07 0.356522949172D+00 0.134110450745D-06
     0.956770540236D+00 0.187656250000D+03 0.849354637727D+00-0.812891003030D-08
    -0.604310886260D-09 0.100000000000D+01 0.237100000000D+04 0.000000000000D+00
     0.200000000000D+01 0.000000000000D+00 0.232830643654D-08 0.420000000000D+02
     0.253680000000D+05 0.400000000000D+01 0.000000000000D+00 0.000000000000D+00
G23 2025 06 15 08 00 00 0.494650099427D-03 0.636646291241D-11 0.000000000000D+00
     0.128000000000D+03-0.449687500000D+02 0.393730686178D-08-0.269642497777D+01
    -0.224076211452D-05 0.527388672344D-02 0.218488276005D-05 0.515365138817D+04
     0.288000000000D+05-0.745058059692D-08 0.243951545022D+01-0.409781932831D-07
     0.984697248456D+00 0.350500000000D+03-0.284938136209D+01-0.796890336538D-08
     0.107147320259D-10 0.100000000000D+01 0.237100000000D+04 0.000000000000D+00
     0.200000000000D+01 0.000000000000D+00-0.838190317154D-08 0.128000000000D+03
     0.271260000000D+05 0.400000000000D+01 0.000000000000D+00 0.000000000000D+00
G10 2025 06 15 08 00 00-0.454386696219D-03-0.110276232590D-10 0.000000000000D+00
     0.680000000000D+02-0.485937500000D+02 0.386908973455D-08 0.239256335486D+01
    -0.255368649960D-05 0.101763885468D-01 0.214017927647D-05 0.515364958191D+04
     0.288000000000D+05-0.298023223877D-07 0.247035349269D+01-0.253319740295D-06
     0.989639709872D+00 0.353718750000D+03-0.231552256903D+01-0.791854412486D-08
    -0.246438836595D-10 0.100000000000D+01 0.237100000000D+04 0.000000000000D+00
     0.200000000000D+01 0.000000000000D+00 0.232830643654D-08 0.680000000000D+02
     0.271260000000D+05 0.400000000000D+01 0.000000000000D+00 0.000000000000D+00
G29 2025 06 15 08 00 00-0.494559761137D-03 0.466116034659D-11 0.000000000000D+00
     0.100000000000D+03 0.493125000000D+02 0.419981779641D-08 0.316662581810D+00
     0.233016908169D-05 0.330973847304D-02 0.964477658272D-05 0.515363990784D+04
     0.288000000000D+05 0.316649675369D-07 0.443417724437D+00 0.130385160446D-07
     0.966014358238D+00 0.195937500000D+03 0.269314207257D+01-0.779639617977D-08
    -0.467519474063D-09 0.100000000000D+01 0.237100000000D+04 0.000000000000D+00
     0.280000000000D+01 0.000000000000D+00-0.977888703346D-08 0.100000000000D+03
     0.271920000000D+05 0.400000000000D+01 0.000000000000D+00 0.000000000000D+00
G 8 2025 06 15 08 00 00 0.525997020304D-03 0.216004991671D-11 0.000000000000D+00
     0.980000000000D+02 0.412187500000D+02 0.480234289400D-08 0.332085160131D+00
     0.226683914661D-05 0.104908873327D-01 0.956840813160D-05 0.515357545090D+04
     0.288000000000D+05 0.745058059692D-07 0.326768000045D+00 0.102445483208D-06
     0.947693439304D+00 0.183906250000D+03 0.456600684897D+00-0.816141138411D-08
    -0.613239829615D-09 0.100000000000D+01 0.237100000000D+04 0.000000000000D+00
     0.280000000000D+01 0.000000000000D+00 0.465661287308D-08 0.980000000000D+02
     0.282360000000D+05 0.400000000000D+01 0.000000000000D+00 0.000000000000D+00
G23 2025 06 15 10 00 00 0.494696199894D-03 0.636646291241D-11 0.000000000000D+00
     0.129000000000D+03-0.383437500000D+02 0.391623455546D-08-0.164608598067D+01
    -0.190921127796D-05 0.527313363273D-02 0.250712037086D-05 0.515365340805D+04
     0.360000000000D+05-0.316649675369D-07 0.243945837739D+01-0.119209289551D-06
     0.984697220660D+00 0.345750000000D+03-0.284953111077D+01-0.796140305296D-08
    -0.471448209139D-10 0.100000000000D+01 0.237100000000D+04 0.000000000000D+00
     0.200000000000D+01 0.000000000000D+00-0.838190317154D-08 0.129000000000D+03
     0.288180000000D+05 0.400000000000D+01 0.000000000000D+00 0.000000000000D+00
G16 2025 06 15 09 59 44 0.386834144592D-04 0.841282599140D-11 0.000000000000D+00
     0.150000000000D+02-0.684375000000D+01 0.492127641949D-08 0.243166662262D+01
    -0.512227416039D-06 0.144483692711D-01 0.638887286186D-05 0.515374395943D+04
     0.359840000000D+05-0.670552253723D-07-0.591664693118D+00-0.253319740295D-06
     0.959467327311D+00 0.256437500000D+03 0.886368166506D+00-0.786925635754D-08
    -0.221437795202D-09 0.100000000000D+01 0.237100000000D+04 0.000000000000D+00
     0.200000000000D+01 0.000000000000D+00-0.102445483208D-07 0.150000000000D+02
     0.288180000000D+05 0.400000000000D+01 0.000000000000D+00 0.000000000000D+00
G18 2025 06 15 10 00 00-0.610520131886D-03 0.591171556152D-11 0.000000000000D+00
     0.122000000000D+03 0.883437500000D+02 0.410124226177D-08-0.561896953698D+00
     0.444427132607D-05 0.520367058925D-02 0.551715493202D-05 0.515369308281D+04
     0.360000000000D+05 0.111758708954D-06 0.143538275869D+01-0.745058059692D-08
     0.973346676276D+00 0.281687500000D+03-0.295806836047D+01-0.801319092442D-08
    -0.264296723305D-10 0.100000000000D+01 0.237100000000D+04 0.000000000000D+00
     0.200000000000D+01 0.000000000000D+00-0.838190317154D-08 0.890000000000D+03
     0.288180000000D+05 0.400000000000D+01 0.000000000000D+00 0.000000000000D+00
G10 2025 06 15 10 00 00-0.454465858638D-03-0.110276232590D-10 0.000000000000D+00
     0.690000000000D+02-0.439062500000D+02 0.381480175895D-08-0.284041532590D+01
    -0.224262475967D-05 0.101758638630D-01 0.223144888878D-05 0.515365046692D+04
     0.360000000000D+05 0.223517417908D-07 0.247029733565D+01-0.111758708954D-06
     0.989639800573D+00 0.351062500000D+03-0.231553858944D+01-0.780925385820D-08
    -0.639312344211D-10 0.100000000000D+01 0.237100000000D+04 0.000000000000D+00
     0.200000000000D+01 0.000000000000D+00 0.232830643654D-08 0.690000000000D+02
     0.288180000000D+05 0.400000000000D+01 0.000000000000D+00 0.000000000000D+00
G27 2025 06 15 10 00 00-0.244122929871D-04 0.454747350886D-12 0.000000000000D+00
     0.430000000000D+02 0.406562500000D+02 0.461554939902D-08 0.151163113008D+01
     0.213272869587D-05 0.134538770653D-01 0.101588666439D-04 0.515369770241D+04
     0.360000000000D+05-0.320374965668D-06 0.356463643936D+00 0.968575477600D-07
     0.956766717631D+00 0.185468750000D+03 0.849399509813D+00-0.801747681723D-08
    -0.457876215239D-09 0.100000000000D+01 0.237100000000D+04 0.000000000000D+00
     0.200000000000D+01 0.000000000000D+00 0.232830643654D-08 0.430000000000D+02
     0.288180000000D+05 0.400000000000D+01 0.000000000000D+00 0.000000000000D+00
G 8 2025 06 15 10 00 00 0.526012852788D-03 0.216004991671D-11 0.000000000000D+00
     0.990000000000D+02 0.408437500000D+02 0.486555981295D-08 0.138232614464D+01
     0.240094959736D-05 0.104908647481D-01 0.983849167824D-05 0.515357545853D+04
     0.360000000000D+05 0.149011611938D-07 0.326709139536D+00 0.204890966415D-06
     0.947689053476D+00 0.183718750000D+03 0.456603089934D+00-0.814176770873D-08
    -0.568237955106D-09 0.100000000000D+01 0.237100000000D+04 0.000000000000D+00
     0.280000000000D+01 0.000000000000D+00 0.465661287308D-08 0.990000000000D+02
     0.288180000000D+05 0.400000000000D+01 0.000000000000D+00 0.000000000000D+00
